[{"OBJECT_NAME":"STARLINK-1216","OBJECT_ID":"2020-012H","EPOCH":"2026-03-09T22:34:00.394176","MEAN_MOTION":15.30198232,"ECCENTRICITY":0.00014284,"INCLINATION":53.1615,"RA_OF_ASC_NODE":38.0686,"ARG_OF_PERICENTER":103.7283,"MEAN_ANOMALY":256.3877,"EPHEMERIS_TYPE":0,"CLASSIFICATION_TYPE":"U","NORAD_CAT_ID":45185,"ELEMENT_SET_NO":999,"REV_AT_EPOCH":33493,"BSTAR":-2.0024159e-5,"MEAN_MOTION_DOT":-9.52e-6,"MEAN_MOTION_DDOT":0},{"OBJECT_NAME":"UHETSAT","OBJECT_ID":"2023-185E","EPOCH":"2026-03-09T22:39:26.455680","MEAN_MOTION":15.29797662,"ECCENTRICITY":0.00118435,"INCLINATION":97.3584,"RA_OF_ASC_NODE":137.3576,"ARG_OF_PERICENTER":307.7346,"MEAN_ANOMALY":52.2821,"EPHEMERIS_TYPE":0,"CLASSIFICATION_TYPE":"U","NORAD_CAT_ID":58466,"ELEMENT_SET_NO":999,"REV_AT_EPOCH":12611,"BSTAR":0.00030513019,"MEAN_MOTION_DOT":8.749e-5,"MEAN_MOTION_DDOT":0}]
